{"type": "FeatureCollection", "features": [ {"type": "Feature", "properties": {"norad_id": 33492, "name": "GOSAT (IBUKI)", "group": "resource", "lat": -70.90138741934514, "lon": 110.31911111713963, "alt_km": 676.818823311165, "timestamp": "2025-12-03T08:58:45.655776+00:00", "meta": {"OBJECT_NAME": "GOSAT (IBUKI)", "OBJECT_ID": "2009-002A", "EPOCH": "2025-12-02T21:51:19.442016", "MEAN_MOTION": 14.67549395, "ECCENTRICITY": 9.9e-05, "INCLINATION": 98.0767, "RA_OF_ASC_NODE": 85.6507, "ARG_OF_PERICENTER": 84.2353, "MEAN_ANOMALY": 275.8964, "EPHEMERIS_TYPE": 0, "CLASSIFICATION_TYPE": "U", "NORAD_CAT_ID": 33492, "ELEMENT_SET_NO": 999, "REV_AT_EPOCH": 90267, "BSTAR": 0.00023386, "MEAN_MOTION_DOT": 1.279e-05, "MEAN_MOTION_DDOT": 0}, "tle": {"line1": "1 33492U 09002A   25336.91064169  .00001279  00000+0  23386-3 0  9990", "line2": "2 33492  98.0767  85.6507 0000990  84.2353 275.8964 14.67549395902672"}}, "geometry": {"type": "Point", "coordinates": [110.31911111713963, -70.90138741934514]}}, {"type": "Feature", "properties": {"norad_id": 35681, "name": "DEIMOS-1", "group": "resource", "lat": 62.4694598856498, "lon": -26.51240961159563, "alt_km": 637.5323536233691, "timestamp": "2025-12-03T08:58:45.655788+00:00", "meta": {"OBJECT_NAME": "DEIMOS-1", "OBJECT_ID": "2009-041A", "EPOCH": "2025-12-03T05:11:49.157952", "MEAN_MOTION": 14.74928273, "ECCENTRICITY": 0.0002676, "INCLINATION": 97.7146, "RA_OF_ASC_NODE": 138.2637, "ARG_OF_PERICENTER": 97.2642, "MEAN_ANOMALY": 262.8872, "EPHEMERIS_TYPE": 0, "CLASSIFICATION_TYPE": "U", "NORAD_CAT_ID": 35681, "ELEMENT_SET_NO": 999, "REV_AT_EPOCH": 87799, "BSTAR": 0.00015362, "MEAN_MOTION_DOT": 9.84e-06, "MEAN_MOTION_DDOT": 0}, "tle": {"line1": "1 35681U 09041A   25337.21654118  .00000984  00000+0  15362-3 0  9995", "line2": "2 35681  97.7146 138.2637 0002676  97.2642 262.8872 14.74928273877992"}}, "geometry": {"type": "Point", "coordinates": [-26.51240961159563, 62.4694598856498]}}, {"type": "Feature", "properties": {"norad_id": 35682, "name": "DUBAISAT-1", "group": "resource", "lat": 62.16051227577714, "lon": 92.7914824516711, "alt_km": 638.8615079994934, "timestamp": "2025-12-03T08:58:45.655800+00:00", "meta": {"OBJECT_NAME": "DUBAISAT-1", "OBJECT_ID": "2009-041B", "EPOCH": "2025-12-02T22:55:20.748864", "MEAN_MOTION": 14.7455736, "ECCENTRICITY": 0.0010186, "INCLINATION": 97.9786, "RA_OF_ASC_NODE": 107.7797, "ARG_OF_PERICENTER": 347.8247, "MEAN_ANOMALY": 12.2714, "EPHEMERIS_TYPE": 0, "CLASSIFICATION_TYPE": "U", "NORAD_CAT_ID": 35682, "ELEMENT_SET_NO": 999, "REV_AT_EPOCH": 87617, "BSTAR": 0.00025494, "MEAN_MOTION_DOT": 1.648e-05, "MEAN_MOTION_DDOT": 0}, "tle": {"line1": "1 35682U 09041B   25336.95510126  .00001648  00000+0  25494-3 0  9991", "line2": "2 35682  97.9786 107.7797 0010186 347.8247  12.2714 14.74557360876179"}}, "geometry": {"type": "Point", "coordinates": [92.7914824516711, 62.16051227577714]}}, {"type": "Feature", "properties": {"norad_id": 35931, "name": "OCEANSAT-2", "group": "resource", "lat": -63.24326043001229, "lon": 142.25755250429873, "alt_km": 914.301868572772, "timestamp": "2025-12-03T08:58:45.655811+00:00", "meta": {"OBJECT_NAME": "OCEANSAT-2", "OBJECT_ID": "2009-051A", "EPOCH": "2025-12-03T04:23:04.821216", "MEAN_MOTION": 13.99626659, "ECCENTRICITY": 0.0016611, "INCLINATION": 98.2231, "RA_OF_ASC_NODE": 338.7523, "ARG_OF_PERICENTER": 69.868, "MEAN_ANOMALY": 290.4272, "EPHEMERIS_TYPE": 0, "CLASSIFICATION_TYPE": "U", "NORAD_CAT_ID": 35931, "ELEMENT_SET_NO": 999, "REV_AT_EPOCH": 85191, "BSTAR": -8.0652e-05, "MEAN_MOTION_DOT": -1.55e-06, "MEAN_MOTION_DDOT": 0}, "tle": {"line1": "1 35931U 09051A   25337.18269469 -.00000155  00000+0 -80652-4 0  9998", "line2": "2 35931  98.2231 338.7523 0016611  69.8680 290.4272 13.99626659851917"}}, "geometry": {"type": "Point", "coordinates": [142.25755250429873, -63.24326043001229]}}, {"type": "Feature", "properties": {"norad_id": 35946, "name": "WORLDVIEW-2 (WV-2)", "group": "resource", "lat": 14.746066166893868, "lon": -129.16099385483645, "alt_km": 766.1722033383367, "timestamp": "2025-12-03T08:58:45.655822+00:00", "meta": {"OBJECT_NAME": "WORLDVIEW-2 (WV-2)", "OBJECT_ID": "2009-055A", "EPOCH": "2025-12-03T04:52:27.418368", "MEAN_MOTION": 14.37645355, "ECCENTRICITY": 0.0005442, "INCLINATION": 98.4771, "RA_OF_ASC_NODE": 48.4207, "ARG_OF_PERICENTER": 89.7275, "MEAN_ANOMALY": 270.4536, "EPHEMERIS_TYPE": 0, "CLASSIFICATION_TYPE": "U", "NORAD_CAT_ID": 35946, "ELEMENT_SET_NO": 999, "REV_AT_EPOCH": 84748, "BSTAR": 0.00010132, "MEAN_MOTION_DOT": 2.61e-06, "MEAN_MOTION_DDOT": 0}, "tle": {"line1": "1 35946U 09055A   25337.20309512  .00000261  00000+0  10132-3 0  9996", "line2": "2 35946  98.4771  48.4207 0005442  89.7275 270.4536 14.37645355847484"}}, "geometry": {"type": "Point", "coordinates": [-129.16099385483645, 14.746066166893868]}}, {"type": "Feature", "properties": {"norad_id": 36036, "name": "SMOS", "group": "resource", "lat": 49.12772815546132, "lon": -7.561935032059554, "alt_km": 754.3475786157878, "timestamp": "2025-12-03T08:58:45.655833+00:00", "meta": {"OBJECT_NAME": "SMOS", "OBJECT_ID": "2009-059A", "EPOCH": "2025-12-03T03:22:25.508064", "MEAN_MOTION": 14.39788056, "ECCENTRICITY": 0.0001037, "INCLINATION": 98.4384, "RA_OF_ASC_NODE": 162.3306, "ARG_OF_PERICENTER": 71.8529, "MEAN_ANOMALY": 288.2772, "EPHEMERIS_TYPE": 0, "CLASSIFICATION_TYPE": "U", "NORAD_CAT_ID": 36036, "ELEMENT_SET_NO": 999, "REV_AT_EPOCH": 84524, "BSTAR": 0.00018847, "MEAN_MOTION_DOT": 5.47e-06, "MEAN_MOTION_DDOT": 0}, "tle": {"line1": "1 36036U 09059A   25337.14057301  .00000547  00000+0  18847-3 0  9998", "line2": "2 36036  98.4384 162.3306 0001037  71.8529 288.2772 14.39788056845240"}}, "geometry": {"type": "Point", "coordinates": [-7.561935032059554, 49.12772815546132]}}, {"type": "Feature", "properties": {"norad_id": 36110, "name": "YAOGAN-7", "group": "resource", "lat": 62.08935196841815, "lon": 54.621124383283004, "alt_km": 646.5611091999172, "timestamp": "2025-12-03T08:58:45.655844+00:00", "meta": {"OBJECT_NAME": "YAOGAN-7", "OBJECT_ID": "2009-069A", "EPOCH": "2025-12-03T03:34:36.715584", "MEAN_MOTION": 14.77708301, "ECCENTRICITY": 0.0023807, "INCLINATION": 98.0303, "RA_OF_ASC_NODE": 218.94, "ARG_OF_PERICENTER": 313.6632, "MEAN_ANOMALY": 46.2605, "EPHEMERIS_TYPE": 0, "CLASSIFICATION_TYPE": "U", "NORAD_CAT_ID": 36110, "ELEMENT_SET_NO": 999, "REV_AT_EPOCH": 86067, "BSTAR": 0.00014607, "MEAN_MOTION_DOT": 9.98e-06, "MEAN_MOTION_DDOT": 0}, "tle": {"line1": "1 36110U 09069A   25337.14903606  .00000998  00000+0  14607-3 0  9990", "line2": "2 36110  98.0303 218.9400 0023807 313.6632  46.2605 14.77708301860672"}}, "geometry": {"type": "Point", "coordinates": [54.621124383283004, 62.08935196841815]}}, {"type": "Feature", "properties": {"norad_id": 36605, "name": "TANDEM-X", "group": "resource", "lat": 47.40492017973266, "lon": -25.28528980023694, "alt_km": 503.3530006242181, "timestamp": "2025-12-03T08:58:45.655860+00:00", "meta": {"OBJECT_NAME": "TANDEM-X", "OBJECT_ID": "2010-030A", "EPOCH": "2025-12-02T15:22:47.718912", "MEAN_MOTION": 15.19155178, "ECCENTRICITY": 0.00017925, "INCLINATION": 97.4443, "RA_OF_ASC_NODE": 342.1684, "ARG_OF_PERICENTER": 94.9925, "MEAN_ANOMALY": 265.1514, "EPHEMERIS_TYPE": 0, "CLASSIFICATION_TYPE": "U", "NORAD_CAT_ID": 36605, "ELEMENT_SET_NO": 999, "REV_AT_EPOCH": 85680, "BSTAR": 9.0053561e-05, "MEAN_MOTION_DOT": 1.825e-05, "MEAN_MOTION_DDOT": 0}, "tle": {"line1": "1 36605U 10030A   25336.64083008  .00001825  00000+0  90054-4 0  9999", "line2": "2 36605  97.4443 342.1684 0001792  94.9925 265.1514 15.19155178856802"}}, "geometry": {"type": "Point", "coordinates": [-25.28528980023694, 47.40492017973266]}}, {"type": "Feature", "properties": {"norad_id": 36795, "name": "CARTOSAT-2B", "group": "resource", "lat": 8.692456132438235, "lon": 25.509389065906582, "alt_km": 635.995012073301, "timestamp": "2025-12-03T08:58:45.655882+00:00", "meta": {"OBJECT_NAME": "CARTOSAT-2B", "OBJECT_ID": "2010-035A", "EPOCH": "2025-12-03T04:04:04.297152", "MEAN_MOTION": 14.78763894, "ECCENTRICITY": 0.0012865, "INCLINATION": 97.7866, "RA_OF_ASC_NODE": 26.5101, "ARG_OF_PERICENTER": 105.6538, "MEAN_ANOMALY": 254.6094, "EPHEMERIS_TYPE": 0, "CLASSIFICATION_TYPE": "U", "NORAD_CAT_ID": 36795, "ELEMENT_SET_NO": 999, "REV_AT_EPOCH": 83088, "BSTAR": 0.00015059, "MEAN_MOTION_DOT": 1.057e-05, "MEAN_MOTION_DDOT": 0}, "tle": {"line1": "1 36795U 10035A   25337.16949418  .00001057  00000+0  15059-3 0  9996", "line2": "2 36795  97.7866  26.5101 0012865 105.6538 254.6094 14.78763894830884"}}, "geometry": {"type": "Point", "coordinates": [25.509389065906582, 8.692456132438235]}}, {"type": "Feature", "properties": {"norad_id": 36834, "name": "YAOGAN-10", "group": "resource", "lat": -71.75970711292877, "lon": 152.29518491792243, "alt_km": 623.327304924589, "timestamp": "2025-12-03T08:58:45.655895+00:00", "meta": {"OBJECT_NAME": "YAOGAN-10", "OBJECT_ID": "2010-038A", "EPOCH": "2025-12-03T05:00:07.225344", "MEAN_MOTION": 14.84550207, "ECCENTRICITY": 0.0001498, "INCLINATION": 97.915, "RA_OF_ASC_NODE": 357.1006, "ARG_OF_PERICENTER": 84.3815, "MEAN_ANOMALY": 3.9502, "EPHEMERIS_TYPE": 0, "CLASSIFICATION_TYPE": "U", "NORAD_CAT_ID": 36834, "ELEMENT_SET_NO": 999, "REV_AT_EPOCH": 82812, "BSTAR": 0.00019045, "MEAN_MOTION_DOT": 1.553e-05, "MEAN_MOTION_DDOT": 0}, "tle": {"line1": "1 36834U 10038A   25337.20841696  .00001553  00000+0  19045-3 0  9997", "line2": "2 36834  97.9150 357.1006 0001498  84.3815   3.9502 14.84550207828126"}}, "geometry": {"type": "Point", "coordinates": [152.29518491792243, -71.75970711292877]}}]}